{
  "type": "FeatureCollection",
  "features": [
    {
      "type": "Feature",
      "properties": {
        "norad_id": 35446,
        "name": "COSMOS 2251 DEB",
        "group": "cosmos-2251-debris",
        "lat": 65.45469217481953,
        "lon": 118.85284913400548,
        "alt_km": 651.8982137226158,
        "timestamp": "2025-12-02T10:50:47.671914+00:00",
        "meta_object_name": "COSMOS 2251 DEB",
        "meta_object_id": "1993-036AKQ",
        "meta_epoch": "2025-11-30T07:11:01.736160",
        "meta_mean_motion": 14.5460995,
        "meta_eccentricity": 0.00744354,
        "meta_inclination": 74.0466,
        "meta_ra_of_asc_node": 341.7043,
        "meta_arg_of_pericenter": 103.5149,
        "meta_mean_anomaly": 257.4321,
        "meta_ephemeris_type": 0,
        "meta_classification_type": "U",
        "meta_norad_cat_id": 35446,
        "meta_element_set_no": 999,
        "meta_rev_at_epoch": 87827,
        "meta_bstar": 0.00010353473,
        "meta_mean_motion_dot": 4.29e-06,
        "meta_mean_motion_ddot": 0,
        "tle_line1": "1 35446U 93036AKQ 25334.29932565  .00000429  00000+0  10353-3 0  9990",
        "tle_line2": "2 35446  74.0466 341.7043 0074435 103.5149 257.4321 14.54609950878278"
      },
      "geometry": {
        "type": "Point",
        "coordinates": [
          118.85284913400548,
          65.45469217481953
        ]
      }
    },
    {
      "type": "Feature",
      "properties": {
        "norad_id": 35448,
        "name": "COSMOS 2251 DEB",
        "group": "cosmos-2251-debris",
        "lat": -16.030669551827785,
        "lon": 104.35684493187854,
        "alt_km": 712.3550131205184,
        "timestamp": "2025-12-02T10:50:47.671925+00:00",
        "meta_object_name": "COSMOS 2251 DEB",
        "meta_object_id": "1993-036AKS",
        "meta_epoch": "2025-11-30T02:46:57.396576",
        "meta_mean_motion": 14.54072836,
        "meta_eccentricity": 0.00108374,
        "meta_inclination": 73.9021,
        "meta_ra_of_asc_node": 113.5661,
        "meta_arg_of_pericenter": 293.2846,
        "meta_mean_anomaly": 66.7175,
        "meta_ephemeris_type": 0,
        "meta_classification_type": "U",
        "meta_norad_cat_id": 35448,
        "meta_element_set_no": 999,
        "meta_rev_at_epoch": 87151,
        "meta_bstar": 0.0011243379,
        "meta_mean_motion_dot": 4.725e-05,
        "meta_mean_motion_ddot": 0,
        "tle_line1": "1 35448U 93036AKS 25334.11594209  .00004725  00000+0  11243-2 0  9993",
        "tle_line2": "2 35448  73.9021 113.5661 0010837 293.2846  66.7175 14.54072836871518"
      },
      "geometry": {
        "type": "Point",
        "coordinates": [
          104.35684493187854,
          -16.030669551827785
        ]
      }
    },
    {
      "type": "Feature",
      "properties": {
        "norad_id": 35451,
        "name": "COSMOS 2251 DEB",
        "group": "cosmos-2251-debris",
        "lat": -71.90263182117701,
        "lon": 6.756548217865559,
        "alt_km": 480.7272301367693,
        "timestamp": "2025-12-02T10:50:47.671935+00:00",
        "meta_object_name": "COSMOS 2251 DEB",
        "meta_object_id": "1993-036AKV",
        "meta_epoch": "2025-12-01T10:13:47.469504",
        "meta_mean_motion": 15.33908779,
        "meta_eccentricity": 0.00396196,
        "meta_inclination": 73.9311,
        "meta_ra_of_asc_node": 127.0764,
        "meta_arg_of_pericenter": 15.9869,
        "meta_mean_anomaly": 344.2575,
        "meta_ephemeris_type": 0,
        "meta_classification_type": "U",
        "meta_norad_cat_id": 35451,
        "meta_element_set_no": 999,
        "meta_rev_at_epoch": 67232,
        "meta_bstar": 0.0018622574,
        "meta_mean_motion_dot": 0.00063135,
        "meta_mean_motion_ddot": 0,
        "tle_line1": "1 35451U 93036AKV 25335.42624386  .00063135  00000+0  18623-2 0  9991",
        "tle_line2": "2 35451  73.9311 127.0764 0039619  15.9869 344.2575 15.33908779672329"
      },
      "geometry": {
        "type": "Point",
        "coordinates": [
          6.756548217865559,
          -71.90263182117701
        ]
      }
    },
    {
      "type": "Feature",
      "properties": {
        "norad_id": 35453,
        "name": "COSMOS 2251 DEB",
        "group": "cosmos-2251-debris",
        "lat": -72.03450859392487,
        "lon": -22.810380973036278,
        "alt_km": 782.6901903447124,
        "timestamp": "2025-12-02T10:50:47.671946+00:00",
        "meta_object_name": "COSMOS 2251 DEB",
        "meta_object_id": "1993-036AKX",
        "meta_epoch": "2025-11-29T13:05:55.541472",
        "meta_mean_motion": 14.37887031,
        "meta_eccentricity": 0.00682488,
        "meta_inclination": 74.0102,
        "meta_ra_of_asc_node": 44.7136,
        "meta_arg_of_pericenter": 181.7658,
        "meta_mean_anomaly": 178.3266,
        "meta_ephemeris_type": 0,
        "meta_classification_type": "U",
        "meta_norad_cat_id": 35453,
        "meta_element_set_no": 999,
        "meta_rev_at_epoch": 86029,
        "meta_bstar": 0.00074250285,
        "meta_mean_motion_dot": 2.276e-05,
        "meta_mean_motion_ddot": 0,
        "tle_line1": "1 35453U 93036AKX 25333.54578173  .00002276  00000+0  74250-3 0  9994",
        "tle_line2": "2 35453  74.0102  44.7136 0068248 181.7658 178.3266 14.37887031860295"
      },
      "geometry": {
        "type": "Point",
        "coordinates": [
          -22.810380973036278,
          -72.03450859392487
        ]
      }
    },
    {
      "type": "Feature",
      "properties": {
        "norad_id": 35455,
        "name": "COSMOS 2251 DEB",
        "group": "cosmos-2251-debris",
        "lat": 64.90607049750443,
        "lon": -8.181429967313855,
        "alt_km": 652.5178026855128,
        "timestamp": "2025-12-02T10:50:47.671957+00:00",
        "meta_object_name": "COSMOS 2251 DEB",
        "meta_object_id": "1993-036AKZ",
        "meta_epoch": "2025-12-01T22:55:52.017888",
        "meta_mean_motion": 14.49196683,
        "meta_eccentricity": 0.0098678,
        "meta_inclination": 74.0279,
        "meta_ra_of_asc_node": 315.0461,
        "meta_arg_of_pericenter": 61.3059,
        "meta_mean_anomaly": 299.7975,
        "meta_ephemeris_type": 0,
        "meta_classification_type": "U",
        "meta_norad_cat_id": 35455,
        "meta_element_set_no": 999,
        "meta_rev_at_epoch": 86387,
        "meta_bstar": 0.0015035,
        "meta_mean_motion_dot": 6.068e-05,
        "meta_mean_motion_ddot": 0,
        "tle_line1": "1 35455U 93036AKZ 25335.95546317  .00006068  00000+0  15035-2 0  9996",
        "tle_line2": "2 35455  74.0279 315.0461 0098678  61.3059 299.7975 14.49196683863876"
      },
      "geometry": {
        "type": "Point",
        "coordinates": [
          -8.181429967313855,
          64.90607049750443
        ]
      }
    },
    {
      "type": "Feature",
      "properties": {
        "norad_id": 35456,
        "name": "COSMOS 2251 DEB",
        "group": "cosmos-2251-debris",
        "lat": 50.229498734296556,
        "lon": 157.74100166783296,
        "alt_km": 638.3699896932139,
        "timestamp": "2025-12-02T10:50:47.671967+00:00",
        "meta_object_name": "COSMOS 2251 DEB",
        "meta_object_id": "1993-036ALA",
        "meta_epoch": "2025-12-01T03:33:20.272320",
        "meta_mean_motion": 14.6906786,
        "meta_eccentricity": 0.00649292,
        "meta_inclination": 73.9491,
        "meta_ra_of_asc_node": 140.0403,
        "meta_arg_of_pericenter": 352.5373,
        "meta_mean_anomaly": 7.4823,
        "meta_ephemeris_type": 0,
        "meta_classification_type": "U",
        "meta_norad_cat_id": 35456,
        "meta_element_set_no": 999,
        "meta_rev_at_epoch": 65705,
        "meta_bstar": 0.0015385209,
        "meta_mean_motion_dot": 9.308e-05,
        "meta_mean_motion_ddot": 0,
        "tle_line1": "1 35456U 93036ALA 25335.14815130  .00009308  00000+0  15385-2 0  9998",
        "tle_line2": "2 35456  73.9491 140.0403 0064929 352.5373   7.4823 14.69067860657052"
      },
      "geometry": {
        "type": "Point",
        "coordinates": [
          157.74100166783296,
          50.229498734296556
        ]
      }
    },
    {
      "type": "Feature",
      "properties": {
        "norad_id": 35459,
        "name": "COSMOS 2251 DEB",
        "group": "cosmos-2251-debris",
        "lat": 7.8635382439593045,
        "lon": 24.114153036992455,
        "alt_km": 756.9382723644685,
        "timestamp": "2025-12-02T10:50:47.671978+00:00",
        "meta_object_name": "COSMOS 2251 DEB",
        "meta_object_id": "1993-036ALD",
        "meta_epoch": "2025-12-01T22:21:32.006880",
        "meta_mean_motion": 14.37436198,
        "meta_eccentricity": 0.0016682,
        "meta_inclination": 73.8706,
        "meta_ra_of_asc_node": 207.3714,
        "meta_arg_of_pericenter": 158.6603,
        "meta_mean_anomaly": 201.5249,
        "meta_ephemeris_type": 0,
        "meta_classification_type": "U",
        "meta_norad_cat_id": 35459,
        "meta_element_set_no": 999,
        "meta_rev_at_epoch": 58206,
        "meta_bstar": 0.00027997,
        "meta_mean_motion_dot": 8.11e-06,
        "meta_mean_motion_ddot": 0,
        "tle_line1": "1 35459U 93036ALD 25335.93162045  .00000811  00000+0  27997-3 0  9991",
        "tle_line2": "2 35459  73.8706 207.3714 0016682 158.6603 201.5249 14.37436198582065"
      },
      "geometry": {
        "type": "Point",
        "coordinates": [
          24.114153036992455,
          7.8635382439593045
        ]
      }
    }
  ]
}